IRIDIUM 144             
1 43249U 18030A   25013.66443756 -.00000068  00000+0 -31316-4 0  9999
2 43249  86.4009 147.5959 0001854 100.2958 259.8447 14.34217369355691
IRIDIUM 149             
1 43250U 18030B   25013.67077918  .00000213  00000+0  68881-4 0  9992
2 43250  86.4005 147.5662 0002183  96.0877 264.0568 14.34217172355692
IRIDIUM 157             
1 43251U 18030C   25013.34096569  .00000038  00000+0  64520-5 0  9992
2 43251  86.4008 147.7455 0002083  88.6156 271.5279 14.34217935355626
IRIDIUM 140             
1 43252U 18030D   25013.70883457  .00000053  00000+0  11706-4 0  9997
2 43252  86.4007 147.6057 0002003  99.3777 260.7645 14.34219195355732
IRIDIUM 145             
1 43253U 18030E   25013.34730842  .00000139  00000+0  42625-4 0  9996
2 43253  86.4005 147.7298 0002314 102.5893 257.5561 14.34218441355611
IRIDIUM 146             
1 43254U 18030F   25013.32828084  .00000459  00000+0  15685-3 0  9991
2 43254  86.4011 147.7521 0002204 103.6538 256.4904 14.34217397355623
IRIDIUM 148             
1 43255U 18030G   25013.36633553  .00000000  00000+0 -68899-5 0  9991
2 43255  86.4011 147.7711 0002124  97.9511 262.1926 14.34217084355667
IRIDIUM 142             
1 43256U 18030H   25013.33462337  .00000025  00000+0  17094-5 0  9996
2 43256  86.4005 147.6926 0002406 101.3172 258.8294 14.34218243355628
